09654   15.2   0.15 K205V 316.82744  324.81612  119.92812    1.12633  0.1728101  0.27502509   2.3418254  0 MPO492862  1147  18 1973-2019 0.47 M-v 38h Williams   0000   (9654) Seitennokai        20190824
09655   13.8   0.15 K205V 295.38431  328.45700  120.58854    4.97311  0.0696040  0.27059806   2.3672980  0 MPO526035  1950  23 1978-2019 0.44 M-v 38h Williams   0000   (9655) Yaburanger         20191220
09656   14.3   0.15 K205V 246.08867  359.00065  133.65083    5.14045  0.1712009  0.27009693   2.3702252  0 MPO492862  1509  19 1985-2019 0.47 M-v 38h Williams   0000   (9656) 1996 DK1           20190927
09657   12.8   0.15 K205V  64.69524  111.34276  142.90742    0.89285  0.1783837  0.17755461   3.1350761  0 MPO492862  1956  22 1981-2019 0.46 M-v 38h Williams   0000   (9657) Ucka               20190822
09658   15.1   0.15 K205V 199.51071   88.02147   42.20927    3.84965  0.1895991  0.26422723   2.4051989  0 MPO473898  1033  18 1976-2019 0.49 M-v 38h MPCLINUX   0000   (9658) Imabari            20190708
09659   12.3   0.15 K205V 203.02115   30.64499  150.01852   13.46147  0.0902977  0.22738450   2.6584519  0 MPO526035  2230  22 1949-2020 0.36 M-v 38h Williams   0000   (9659) 1996 EJ            20200108
09660   12.9   0.15 K205V  68.99463  149.10362   65.20365    2.04488  0.1271707  0.17336656   3.1853646  0 MPO473898  1849  22 1979-2019 0.45 M-v 38h Williams   0000   (9660) 1996 FW4           20190511
09661   11.4   0.15 K205V 277.07117  288.54290   56.75469   12.98726  0.2324336  0.12574048   3.9459596  0 MPO526035  1818  23 1982-2020 0.44 M-v 38h Williams   0008   (9661) Hohmann            20200107
09662   13.7   0.15 K205V 263.92495  183.44991  190.37757    9.31407  0.1750245  0.21423362   2.7661621  0 MPO473898  1411  21 1992-2019 0.47 M-v 38h MPCLINUX   0000   (9662) Frankhubbard       20190725
09663   14.6   0.15 K205V 295.10000    1.80270  124.03609    0.88048  0.0942702  0.22928216   2.6437631  0 MPO526035  1303  19 1991-2020 0.44 M-v 38h Williams   0000   (9663) Zwin               20200106
09664   13.3   0.15 K205V  85.09653   90.78409  114.93330    2.32892  0.1196554  0.17249759   3.1960533  0 MPO492862  1621  22 1981-2019 0.43 M-v 38h Williams   0000   (9664) Brueghel           20190822
09665   12.6   0.15 K205V 202.95789  320.90972  222.65874    7.71418  0.1210890  0.18319373   3.0704049  0 MPO526035  2111  21 1987-2020 0.43 M-v 38h Williams   0000   (9665) Inastronoviny      20200104
09666   13.7   0.15 K205V  58.96012  290.09918   30.88698   12.34722  0.1894314  0.22975275   2.6401518  0 MPO526035  1537  20 1985-2020 0.44 M-v 38h Williams   0000   (9666) 1997 GM22          20200102
09667   14.2   0.15 K205V 298.38702  121.34883  196.31315    2.39447  0.1777295  0.25837661   2.4413718  0 MPO526035  1883  20 1993-2020 0.41 M-v 38h Williams   0000   (9667) Amastrinc          20200102
09668   13.8   0.15 K205V 205.47667  209.26239  164.53225    6.14694  0.0683929  0.21136478   2.7911358  0 MPO473898  1533  22 1979-2019 0.46 M-v 38h MPCLINUX   0000   (9668) Tianyahaijiao      20190524
09669   13.2   0.15 K205V 271.00165  127.78381  267.40715    0.44273  0.1806009  0.16946470   3.2340734  0 MPO473898  1592  20 1994-2019 0.46 M-v 38h MPCLINUX   0000   (9669) Symmetria          20190729
09670   12.5   0.15 K205V 310.23994  336.34591  175.15827   10.30311  0.0496771  0.19063395   2.9899864  0 MPO526035  2024  21 1987-2020 0.42 M-v 38h Williams   0000   (9670) Magni              20200104
09671   13.9   0.15 K205V 258.40949  340.92883  212.08683    4.83407  0.4354822  0.22312445   2.6921832  0 MPO505519  1791  21 1959-2019 0.41 M-v 38h Williams   0005   (9671) Hemera             20191128
09672   13.0   0.15 K205V 347.99020    4.80700   34.31399    3.70166  0.0526812  0.17356371   3.1829520  0 MPO526036  1857  20 1985-2019 0.44 M-v 38h Williams   0000   (9672) Rosenbergerezek    20191227
09673   14.1   0.15 K205V   9.42611  108.62934  184.06995    4.05204  0.1895338  0.29835157   2.2181138  0 MPO473898  2014  23 1977-2019 0.43 M-v 38h MPCLINUX   0000   (9673) Kunishimakoto      20190601
09674   13.8   0.15 K205V 291.23520  354.40928  164.32667    8.47692  0.1296243  0.23950708   2.5679731  0 MPO526036  1945  20 1980-2020 0.41 M-v 38h Williams   0000   (9674) Slovenija          20200107
09675   13.0   0.15 K205V 358.00278  121.45776  166.47321   13.78902  0.1156756  0.17559214   3.1583918  0 MPO473898  1595  23 1981-2019 0.46 M-v 38h MPCLINUX   0000   (9675) 1998 QK36          20190726
09676   13.5   0.15 K205V  44.78421  356.97702  321.75200    0.61205  0.1600395  0.18215998   3.0820101  0 MPO526036  1693  26 1954-2019 0.44 M-v 38h Williams   0000   (9676) Eijkman            20191210
09677   13.7   0.15 K205V  28.30104  129.76187  189.01933    8.56657  0.2591237  0.18205730   3.0831689  0 MPO505520  1140  23 1960-2019 0.46 M-v 38h Williams   0000   (9677) Gowlandhopkins     20191127
09678   15.9   0.15 K205V  85.02786  132.35174  194.06251    2.41888  0.2089494  0.23375594   2.6099225  0 MPO526036   652  17 1960-2020 0.36 M-v 38h Williams   0000   (9678) van der Meer       20200107
09679   15.9   0.15 K205V 278.78088  158.86794  190.63445    1.26789  0.1696319  0.25994855   2.4315197  0 MPO467767   754  18 1960-2019 0.44 M-v 38h MPCLINUX   0000   (9679) Crutzen            20190403
09680   14.6   0.15 K205V  78.16530  150.02987  312.42639    4.65559  0.1090062  0.28804359   2.2707217  0 MPO526036  1518  18 1953-2020 0.44 M-v 38h Williams   0000   (9680) Molina             20200107
09681   13.5   0.15 K205V 184.38642  350.70187  202.55192    9.06908  0.0472742  0.18244490   3.0788006  0 MPO505520  1441  23 1952-2019 0.45 M-v 38h Williams   0000   (9681) Sherwoodrowland    20191127
09682   15.5   0.15 K205V  30.21179   18.95381  260.65644    2.76672  0.0220198  0.31129145   2.1562110  0 MPO492863  1300  18 1960-2019 0.44 M-v 38h Williams   0000   (9682) Gravesande         20190528
09683   15.3   0.15 K205V 105.91018  194.08810  210.80249    5.18996  0.1548732  0.28709056   2.2757442  0 MPO526036  1065  21 1960-2020 0.45 M-v 38h Williams   0000   (9683) Rambaldo           20200107
09684   14.2   0.15 K205V 162.63751  288.03917  203.53678    1.91133  0.1386050  0.26006854   2.4307717  0 MPO473898  1703  22 1949-2019 0.44 M-v 38h MPCLINUX   0000   (9684) Olieslagers        20190726
09685   14.5   0.15 K205V  92.05706  303.76655  258.59285    1.27373  0.1324685  0.26121786   2.4236364  0 MPO473898  1896  20 1960-2019 0.44 M-v 38h MPCLINUX   0000   (9685) Korteweg           20190626
09686   15.2   0.15 K205V 149.38107  305.69143   27.67611    2.32241  0.1141170  0.28642306   2.2792785  0 MPO526036  1110  21 1953-2020 0.46 M-v 38h Williams   0000   (9686) Keesom             20200104
09687   13.8   0.15 K205V 145.67459   72.79038   15.64422    6.05311  0.0075962  0.20877339   2.8141848  0 MPO473898  1505  23 1951-2019 0.44 M-v 38h MPCLINUX   0000   (9687) Uhlenbeck          20190601
09688   13.8   0.15 K205V 259.09926  329.18362   40.30139    4.33367  0.1316687  0.25977764   2.4325860  0 MPO473898  2019  23 1949-2019 0.42 M-v 38h MPCLINUX   0000   (9688) Goudsmit           20190603
09689   14.5   0.15 K205V 319.96169  109.16166   11.89754   13.45216  0.1528692  0.23386551   2.6091073  0 MPO526036  1207  18 1960-2020 0.41 M-v 38h Williams   0000   (9689) Freudenthal        20200104
09690   12.7   0.15 K205V 183.17492  265.20795  186.06804    9.20368  0.1731544  0.20924588   2.8099468  0 MPO473898  1685  21 1953-2019 0.41 M-v 38h MPCLINUX   0000   (9690) Houtgast           20190801
09691   14.6   0.15 K205V 108.66510   83.22245  211.27161    3.32479  0.1971094  0.23413138   2.6071316  0 MPO526036  1363  22 1960-2020 0.41 M-v 38h Williams   0000   (9691) Zwaan              20200106
09692   16.4   0.15 K205V 260.00156  190.48209  176.70119    2.54937  0.1903256  0.25987099   2.4320034  0 MPO467767   485  17 1960-2019 0.47 M-v 38h MPCLINUX   0000   (9692) Kuperus            20190407
09693   14.3   0.15 K205V 280.80214  320.29322   38.58431    3.08780  0.2097556  0.26059316   2.4275082  0 MPO467767  1692  22 1960-2019 0.46 M-v 38h MPCLINUX   0000   (9693) Bleeker            20190508
09694   10.7   0.15 K205V 292.12335   56.66975  349.97852    4.94925  0.0380596  0.08586048   5.0887037  0 MPO526036  1621  23 1960-2019 0.45 M-v 38h Williams   0009   (9694) Lycomedes          20191220
09695   14.6   0.15 K205V  28.31202  275.26777  173.07009    4.14979  0.0992947  0.28560209   2.2836443  0 MPO526036  1663  20 1953-2020 0.43 M-v 38h Williams   0000   (9695) Johnheise          20200104
09696   15.5   0.15 K205V 282.83099  187.32824  158.63863    1.29003  0.1892418  0.26022313   2.4298089  0 MPO467767   941  20 1960-2019 0.44 M-v 38h MPCLINUX   0000   (9696) Jaffe              20190331
09697   13.9   0.15 K205V  94.92839  221.57461  193.31951    5.43914  0.0480383  0.19872344   2.9082829  0 MPO526036  1669  23 1953-2020 0.44 M-v 38h Williams   0000   (9697) Louwman            20200107
09698   14.0   0.15 K205V 173.71424  186.09122    7.52705    7.36520  0.0521912  0.27084192   2.3658768  0 MPO492863  1435  19 1971-2019 0.45 M-v 38h Williams   0000   (9698) Idzerda            20190826
09699   14.0   0.15 K205V  95.56750  104.66601  196.37962   11.68747  0.2209459  0.23082125   2.6319978  0 MPO526036  1694  21 1971-2019 0.41 M-v 38h Williams   0000   (9699) Baumhauer          20191229
09700   14.5   0.15 K205V 239.52923   13.69748  352.28946    6.23953  0.1656438  0.30395227   2.1907818  0 MPO526036  1288  18 1971-2019 0.46 M-v 38h Williams   0000   (9700) Paech              20190522
09701   15.3   0.15 K205V 191.45269  355.81988  203.37062    2.60463  0.1310838  0.27647874   2.3336097  0 MPO505520   991  19 1973-2019 0.49 M-v 38h Williams   0000   (9701) Mak                20191206
09702   15.0   0.15 K205V  97.44187  111.18274  199.88775    3.03644  0.1032773  0.27753515   2.3276842  0 MPO526036  1329  19 1973-2019 0.45 M-v 38h Williams   0000   (9702) Tomvandijk         20191219
